$$SOE
2460721.500000000, A.D. 2025-Feb-15 00:00:00.0000, 4.170797093691065E+08, -2.330560258509749E+08, 5.918095575611846E+07,
2460728.500000000, A.D. 2025-Feb-22 00:00:00.0000, 4.217496470353109E+08, -2.242699719201667E+08, 5.770023289163688E+07,
2460735.500000000, A.D. 2025-Mar-01 00:00:00.0000, 4.262357751452675E+08, -2.153862280970902E+08, 5.619436021856543E+07,
2460742.500000000, A.D. 2025-Mar-08 00:00:00.0000, 4.305358122339796E+08, -2.064084993738339E+08, 5.466395033907793E+07,
2460749.500000000, A.D. 2025-Mar-15 00:00:00.0000, 4.346475524162425E+08, -1.973405438915666E+08, 5.310962892891504E+07,
2460756.500000000, A.D. 2025-Mar-22 00:00:00.0000, 4.385688647073553E+08, -1.881861711528894E+08, 5.153203478176580E+07,
2460763.500000000, A.D. 2025-Mar-29 00:00:00.0000, 4.422976936928861E+08, -1.789492424423628E+08, 4.993181953518417E+07,
2460770.500000000, A.D. 2025-Apr-05 00:00:00.0000, 4.458320618705282E+08, -1.696336703158392E+08, 4.830964730410828E+07,
2460777.500000000, A.D. 2025-Apr-12 00:00:00.0000, 4.491700717368675E+08, -1.602434170541921E+08, 4.666619440690248E+07,
2460784.500000000, A.D. 2025-Apr-19 00:00:00.0000, 4.523099074305007E+08, -1.507824929627263E+08, 4.500214912884901E+07,
2460791.500000000, A.D. 2025-Apr-26 00:00:00.0000, 4.552498362015767E+08, -1.412549547191791E+08, 4.331821148132969E+07,
2460798.500000000, A.D. 2025-May-03 00:00:00.0000, 4.579882098198057E+08, -1.316649037509789E+08, 4.161509294762708E+07,
2460805.500000000, A.D. 2025-May-10 00:00:00.0000, 4.605234659479671E+08, -1.220164846330444E+08, 3.989351621328775E+07,
2460812.500000000, A.D. 2025-May-17 00:00:00.0000, 4.628541295160486E+08, -1.123138835473538E+08, 3.815421487422518E+07,
2460819.500000000, A.D. 2025-May-24 00:00:00.0000, 4.649788142679379E+08, -1.025613268591236E+08, 3.639793310200209E+07,
2460826.500000000, A.D. 2025-May-31 00:00:00.0000, 4.668962248958717E+08, -9.276307949854085E+07, 3.462542525315905E+07,
2460833.500000000, A.D. 2025-Jun-07 00:00:00.0000, 4.686051593600148E+08, -8.292344194247338E+07, 3.283745555791602E+07,
2460840.500000000, A.D. 2025-Jun-14 00:00:00.0000, 4.701045090289990E+08, -7.304674646341807E+07, 3.103479805119772E+07,
2460847.500000000, A.D. 2025-Jun-21 00:00:00.0000, 4.713932578574526E+08, -6.313735591922202E+07, 2.921823636725444E+07,
2460854.500000000, A.D. 2025-Jun-28 00:00:00.0000, 4.724704837255535E+08, -5.319966332023142E+07, 2.738856325490289E+07,
2460861.500000000, A.D. 2025-Jul-05 00:00:00.0000, 4.733353604210519E+08, -4.323809001803031E+07, 2.554658012865261E+07,
2460868.500000000, A.D. 2025-Jul-12 00:00:00.0000, 4.739871590702455E+08, -3.325708332211906E+07, 2.369309669916585E+07,
2460875.500000000, A.D. 2025-Jul-19 00:00:00.0000, 4.744252492044350E+08, -2.326111412039463E+07, 2.182893061863797E+07,
2460882.500000000, A.D. 2025-Jul-26 00:00:00.0000, 4.746490996688599E+08, -1.325467456005479E+07, 1.995490711730102E+07,
2460889.500000000, A.D. 2025-Aug-02 00:00:00.0000, 4.746582794376392E+08, -3.242275766869452E+06, 1.807185862717817E+07,
2460896.500000000, A.D. 2025-Aug-09 00:00:00.0000, 4.744524583576723E+08, 6.771554382645926E+06, 1.618062439036979E+07,
2460903.500000000, A.D. 2025-Aug-16 00:00:00.0000, 4.740314078987485E+08, 1.678227337199475E+07, 1.428205004033927E+07,
2460910.500000000, A.D. 2025-Aug-23 00:00:00.0000, 4.733950022022129E+08, 2.678532605277131E+07, 1.237698713122337E+07,
2460917.500000000, A.D. 2025-Aug-30 00:00:00.0000, 4.725432197550647E+08, 3.677614726183988E+07, 1.046629264364129E+07,
2460924.500000000, A.D. 2025-Sep-06 00:00:00.0000, 4.714761442692577E+08, 4.675016604696549E+07, 8.550828679295983E+06,
2460931.500000000, A.D. 2025-Sep-13 00:00:00.0000, 4.701939630957831E+08, 5.670280901661189E+07, 6.631462295388624E+06,
2460938.500000000, A.D. 2025-Sep-20 00:00:00.0000, 4.686969664457232E+08, 6.662950116615267E+07, 4.709065044524170E+06,
2460945.500000000, A.D. 2025-Sep-27 00:00:00.0000, 4.669855484731504E+08, 7.652566728964663E+07, 2.784512377465293E+06,
2460952.500000000, A.D. 2025-Oct-04 00:00:00.0000, 4.650602082003096E+08, 8.638673451508121E+07, 8.586831381998435E+05,
2460959.500000000, A.D. 2025-Oct-11 00:00:00.0000, 4.629215499095092E+08, 9.620813501869316E+07, -1.067540890984632E+06,
2460966.500000000, A.D. 2025-Oct-18 00:00:00.0000, 4.605702832836468E+08, 1.059853086425765E+08, -2.993275442419454E+06,
2460973.500000000, A.D. 2025-Oct-25 00:00:00.0000, 4.580072234334103E+08, 1.157137054254041E+08, -4.917634225464582E+06,
2460980.500000000, A.D. 2025-Nov-01 00:00:00.0000, 4.552332908495638E+08, 1.253887880606873E+08, -6.839729400406554E+06,
2460987.500000000, A.D. 2025-Nov-08 00:00:00.0000, 4.522495113143978E+08, 1.350060342500180E+08, -8.758672069289669E+06,
2460994.500000000, A.D. 2025-Nov-15 00:00:00.0000, 4.490570159202238E+08, 1.445609388911858E+08, -1.067357280182791E+07,
2461001.500000000, A.D. 2025-Nov-22 00:00:00.0000, 4.456570415974172E+08, 1.540490163188223E+08, -1.258354221526536E+07,
2461008.500000000, A.D. 2025-Nov-29 00:00:00.0000, 4.420509319969853E+08, 1.634658037297384E+08, -1.448769150126195E+07,
2461015.500000000, A.D. 2025-Dec-06 00:00:00.0000, 4.382401364485412E+08, 1.728068656558583E+08, -1.638513270162212E+07,
2461022.500000000, A.D. 2025-Dec-13 00:00:00.0000, 4.342262074289948E+08, 1.820677961133932E+08, -1.827497904774143E+07,
2461029.500000000, A.D. 2025-Dec-20 00:00:00.0000, 4.300108000356520E+08, 1.912442194478987E+08, -2.015634560046720E+07,
2461036.500000000, A.D. 2025-Dec-27 00:00:00.0000, 4.255956723879422E+08, 2.003317924635405E+08, -2.202834987977308E+07,
2461043.500000000, A.D. 2026-Jan-03 00:00:00.0000, 4.209826854974759E+08, 2.093262072192892E+08, -2.389011240017688E+07,
2461050.500000000, A.D. 2026-Jan-10 00:00:00.0000, 4.161738027159951E+08, 2.182231938115313E+08, -2.574075717689586E+07,
2461057.500000000, A.D. 2026-Jan-17 00:00:00.0000, 4.111710889937270E+08, 2.270185230498757E+08, -2.757941223098625E+07,
2461064.500000000, A.D. 2026-Jan-24 00:00:00.0000, 4.059767100260785E+08, 2.357080090472309E+08, -2.940521009816345E+07,
2461071.500000000, A.D. 2026-Jan-31 00:00:00.0000, 4.005929313122487E+08, 2.442875117152750E+08, -3.121728834345004E+07,
2461078.500000000, A.D. 2026-Feb-07 00:00:00.0000, 3.950221171876957E+08, 2.527529391066774E+08, -3.301479009138268E+07,
2461085.500000000, A.D. 2026-Feb-14 00:00:00.0000, 3.892667300844910E+08, 2.611002495874741E+08, -3.479686459573208E+07,
2461092.500000000, A.D. 2026-Feb-21 00:00:00.0000, 3.833293304083465E+08, 2.693254544144592E+08, -3.656266783671412E+07,
2461099.500000000, A.D. 2026-Feb-28 00:00:00.0000, 3.772125759471741E+08, 2.774246218678055E+08, -3.831136295130034E+07,
2461106.500000000, A.D. 2026-Mar-07 00:00:00.0000, 3.709192187522033E+08, 2.853938809873921E+08, -4.004212046635512E+07,
2461113.500000000, A.D. 2026-Mar-14 00:00:00.0000, 3.644521022704048E+08, 2.932294225787331E+08, -4.175411877953935E+07,
2461120.500000000, A.D. 2026-Mar-21 00:00:00.0000, 3.578141605127009E+08, 3.009275003816698E+08, -4.344654481426589E+07,
2461127.500000000, A.D. 2026-Mar-28 00:00:00.0000, 3.510084172471444E+08, 3.084844334257885E+08, -4.511859457929410E+07,
2461134.500000000, A.D. 2026-Apr-04 00:00:00.0000, 3.440379846121826E+08, 3.158966086042199E+08, -4.676947365534048E+07,
2461141.500000000, A.D. 2026-Apr-11 00:00:00.0000, 3.369060614239925E+08, 3.231604831045013E+08, -4.839839766224642E+07,
2461148.500000000, A.D. 2026-Apr-18 00:00:00.0000, 3.296159313387223E+08, 3.302725866890833E+08, -5.000459272113360E+07,
2461155.500000000, A.D. 2026-Apr-25 00:00:00.0000, 3.221709609182824E+08, 3.372295238392444E+08, -5.158729591406633E+07,
2461162.500000000, A.D. 2026-May-02 00:00:00.0000, 3.145745976336652E+08, 3.440279757311419E+08, -5.314575574607238E+07,
2461169.500000000, A.D. 2026-May-09 00:00:00.0000, 3.068303679335111E+08, 3.506647019755884E+08, -5.467923262596458E+07,
2461176.500000000, A.D. 2026-May-16 00:00:00.0000, 2.989418757588233E+08, 3.571365422575947E+08, -5.618699938896096E+07,
2461183.500000000, A.D. 2026-May-23 00:00:00.0000, 2.909128015584813E+08, 3.634404188949728E+08, -5.766834178194720E+07,
2461190.500000000, A.D. 2026-May-30 00:00:00.0000, 2.827468997279552E+08, 3.695733406312538E+08, -5.912255869374673E+07,
2461197.500000000, A.D. 2026-Jun-06 00:00:00.0000, 2.744479941538889E+08, 3.755324043878733E+08, -6.054896236794648E+07,
2461204.500000000, A.D. 2026-Jun-13 00:00:00.0000, 2.660199755339687E+08, 3.813147951748596E+08, -6.194687891846648E+07,
2461211.500000000, A.D. 2026-Jun-20 00:00:00.0000, 2.574667999742467E+08, 3.869177870834802E+08, -6.331564886277989E+07,
2461218.500000000, A.D. 2026-Jun-27 00:00:00.0000, 2.487924871669756E+08, 3.923387450181824E+08, -6.465462754433122E+07,
2461225.500000000, A.D. 2026-Jul-04 00:00:00.0000, 2.400011181506223E+08, 3.975751263912936E+08, -6.596318550720081E+07,
2461232.500000000, A.D. 2026-Jul-11 00:00:00.0000, 2.310968329082823E+08, 4.026244826472166E+08, -6.724070885695846E+07,
2461239.500000000, A.D. 2026-Jul-18 00:00:00.0000, 2.220838278996607E+08, 4.074844606405089E+08, -6.848659961399910E+07,
2461246.500000000, A.D. 2026-Jul-25 00:00:00.0000, 2.129663535535389E+08, 4.121528038692635E+08, -6.970027606123924E+07,
2461253.500000000, A.D. 2026-Aug-01 00:00:00.0000, 2.037487117712951E+08, 4.166273535145015E+08, -7.088117309435211E+07,
2461260.500000000, A.D. 2026-Aug-08 00:00:00.0000, 1.944352536588530E+08, 4.209060492488627E+08, -7.202874259702525E+07,
2461267.500000000, A.D. 2026-Aug-15 00:00:00.0000, 1.850303779049685E+08, 4.249869302646691E+08, -7.314245384250709E+07,
2461274.500000000, A.D. 2026-Aug-22 00:00:00.0000, 1.755385290483526E+08, 4.288681377416747E+08, -7.422179375182995E+07,
2461281.500000000, A.D. 2026-Aug-29 00:00:00.0000, 1.659641933466549E+08, 4.325479173788874E+08, -7.526626691007937E+07,
2461288.500000000, A.D. 2026-Sep-05 00:00:00.0000, 1.563118943815835E+08, 4.360246191221788E+08, -7.627539577011368E+07,
$$EOE